{"type": "FeatureCollection", "features": [ {"type": "Feature", "properties": {"norad_id": 66737, "name": "FLOCK 4H-34", "group": "last-30-days", "lat": -13.321286753160331, "lon": 70.60287374760811, "alt_km": 517.7384472420099, "timestamp": "2025-12-23T05:02:10.749559+00:00", "meta": {"OBJECT_NAME": "FLOCK 4H-34", "OBJECT_ID": "2025-276BZ", "EPOCH": "2025-12-22T21:11:09.673440", "MEAN_MOTION": 15.18151804, "ECCENTRICITY": 0.00024561, "INCLINATION": 97.4442, "RA_OF_ASC_NODE": 68.5069, "ARG_OF_PERICENTER": 169.312, "MEAN_ANOMALY": 190.8166, "EPHEMERIS_TYPE": 0, "CLASSIFICATION_TYPE": "U", "NORAD_CAT_ID": 66737, "ELEMENT_SET_NO": 999, "REV_AT_EPOCH": 291, "BSTAR": 0.00054479485, "MEAN_MOTION_DOT": 0.00011067, "MEAN_MOTION_DDOT": 0}, "tle": {"line1": "1 66737U 25276BZ  25356.88275085  .00011067  00000+0  54479-3 0  9991", "line2": "2 66737  97.4442  68.5069 0002456 169.3120 190.8166 15.18151804  2911"}}, "geometry": {"type": "Point", "coordinates": [70.60287374760811, -13.321286753160331]}}, {"type": "Feature", "properties": {"norad_id": 66738, "name": "FLOCK 4H-35", "group": "last-30-days", "lat": -4.377440153097221, "lon": 69.39251619362636, "alt_km": 516.1805058729869, "timestamp": "2025-12-23T05:02:10.749571+00:00", "meta": {"OBJECT_NAME": "FLOCK 4H-35", "OBJECT_ID": "2025-276CA", "EPOCH": "2025-12-22T19:33:54.207936", "MEAN_MOTION": 15.18244123, "ECCENTRICITY": 0.00023501, "INCLINATION": 97.4404, "RA_OF_ASC_NODE": 68.4312, "ARG_OF_PERICENTER": 148.3424, "MEAN_ANOMALY": 211.7952, "EPHEMERIS_TYPE": 0, "CLASSIFICATION_TYPE": "U", "NORAD_CAT_ID": 66738, "ELEMENT_SET_NO": 999, "REV_AT_EPOCH": 294, "BSTAR": 0.00055633112, "MEAN_MOTION_DOT": 0.00011333, "MEAN_MOTION_DDOT": 0}, "tle": {"line1": "1 66738U 25276CA  25356.81521074  .00011333  00000+0  55633-3 0  9996", "line2": "2 66738  97.4404  68.4312 0002350 148.3424 211.7952 15.18244123  2943"}}, "geometry": {"type": "Point", "coordinates": [69.39251619362636, -4.377440153097221]}}, {"type": "Feature", "properties": {"norad_id": 66739, "name": "FLOCK 4H-36", "group": "last-30-days", "lat": -26.534919715205564, "lon": 72.5703941527329, "alt_km": 519.0806018215198, "timestamp": "2025-12-23T05:02:10.749584+00:00", "meta": {"OBJECT_NAME": "FLOCK 4H-36", "OBJECT_ID": "2025-276CB", "EPOCH": "2025-12-22T21:14:38.021856", "MEAN_MOTION": 15.17994135, "ECCENTRICITY": 0.0002366, "INCLINATION": 97.4451, "RA_OF_ASC_NODE": 68.507, "ARG_OF_PERICENTER": 184.8841, "MEAN_ANOMALY": 175.237, "EPHEMERIS_TYPE": 0, "CLASSIFICATION_TYPE": "U", "NORAD_CAT_ID": 66739, "ELEMENT_SET_NO": 999, "REV_AT_EPOCH": 366, "BSTAR": 0.00054731763, "MEAN_MOTION_DOT": 0.00011068, "MEAN_MOTION_DDOT": 0}, "tle": {"line1": "1 66739U 25276CB  25356.88516229  .00011068  00000+0  54732-3 0  9994", "line2": "2 66739  97.4451  68.5070 0002366 184.8841 175.2370 15.17994135  3665"}}, "geometry": {"type": "Point", "coordinates": [72.5703941527329, -26.534919715205564]}}, {"type": "Feature", "properties": {"norad_id": 66740, "name": "TRANSPORTER-15CC", "group": "last-30-days", "lat": -52.53719235417563, "lon": 78.6267250944542, "alt_km": 519.2231231146643, "timestamp": "2025-12-23T05:02:10.749594+00:00", "meta": {"OBJECT_NAME": "TRANSPORTER-15CC", "OBJECT_ID": "2025-276CC", "EPOCH": "2025-12-22T21:21:30.942144", "MEAN_MOTION": 15.17712077, "ECCENTRICITY": 0.00021404, "INCLINATION": 97.4413, "RA_OF_ASC_NODE": 68.4918, "ARG_OF_PERICENTER": 238.9138, "MEAN_ANOMALY": 121.1886, "EPHEMERIS_TYPE": 0, "CLASSIFICATION_TYPE": "U", "NORAD_CAT_ID": 66740, "ELEMENT_SET_NO": 999, "REV_AT_EPOCH": 366, "BSTAR": 0.00059987041, "MEAN_MOTION_DOT": 0.00012041, "MEAN_MOTION_DDOT": 0}, "tle": {"line1": "1 66740U 25276CC  25356.88994146  .00012041  00000+0  59987-3 0  9993", "line2": "2 66740  97.4413  68.4918 0002140 238.9138 121.1886 15.17712077  3660"}}, "geometry": {"type": "Point", "coordinates": [78.6267250944542, -52.53719235417563]}}, {"type": "Feature", "properties": {"norad_id": 66741, "name": "TRANSPORTER-15CD", "group": "last-30-days", "lat": -57.80818564712604, "lon": 80.77826175797817, "alt_km": 519.9714905594483, "timestamp": "2025-12-23T05:02:10.749605+00:00", "meta": {"OBJECT_NAME": "TRANSPORTER-15CD", "OBJECT_ID": "2025-276CD", "EPOCH": "2025-12-22T13:28:11.088480", "MEAN_MOTION": 15.17613233, "ECCENTRICITY": 9.575e-05, "INCLINATION": 97.4412, "RA_OF_ASC_NODE": 68.1584, "ARG_OF_PERICENTER": 231.7833, "MEAN_ANOMALY": 128.3315, "EPHEMERIS_TYPE": 0, "CLASSIFICATION_TYPE": "U", "NORAD_CAT_ID": 66741, "ELEMENT_SET_NO": 999, "REV_AT_EPOCH": 361, "BSTAR": 0.00019884788, "MEAN_MOTION_DOT": 3.931e-05, "MEAN_MOTION_DDOT": 0}, "tle": {"line1": "1 66741U 25276CD  25356.56123945  .00003931  00000+0  19885-3 0  9991", "line2": "2 66741  97.4412  68.1584 0000957 231.7833 128.3315 15.17613233  3618"}}, "geometry": {"type": "Point", "coordinates": [80.77826175797817, -57.80818564712604]}}, {"type": "Feature", "properties": {"norad_id": 66742, "name": "TRANSPORTER-15CE", "group": "last-30-days", "lat": -49.571694735214315, "lon": 77.62088634754953, "alt_km": 520.2728346452423, "timestamp": "2025-12-23T05:02:10.749615+00:00", "meta": {"OBJECT_NAME": "TRANSPORTER-15CE", "OBJECT_ID": "2025-276CE", "EPOCH": "2025-12-22T21:20:42.768096", "MEAN_MOTION": 15.17696903, "ECCENTRICITY": 0.00016434, "INCLINATION": 97.4404, "RA_OF_ASC_NODE": 68.4819, "ARG_OF_PERICENTER": 191.9441, "MEAN_ANOMALY": 168.1754, "EPHEMERIS_TYPE": 0, "CLASSIFICATION_TYPE": "U", "NORAD_CAT_ID": 66742, "ELEMENT_SET_NO": 999, "REV_AT_EPOCH": 366, "BSTAR": 0.00039362828, "MEAN_MOTION_DOT": 7.87e-05, "MEAN_MOTION_DDOT": 0}, "tle": {"line1": "1 66742U 25276CE  25356.88938389  .00007870  00000+0  39363-3 0  9992", "line2": "2 66742  97.4404  68.4819 0001643 191.9441 168.1754 15.17696903  3668"}}, "geometry": {"type": "Point", "coordinates": [77.62088634754953, -49.571694735214315]}}, {"type": "Feature", "properties": {"norad_id": 66743, "name": "TRANSPORTER-15CF", "group": "last-30-days", "lat": -70.25256904733561, "lon": 90.13686732328016, "alt_km": 524.4311709602234, "timestamp": "2025-12-23T05:02:10.749625+00:00", "meta": {"OBJECT_NAME": "TRANSPORTER-15CF", "OBJECT_ID": "2025-276CF", "EPOCH": "2025-12-22T11:56:13.349472", "MEAN_MOTION": 15.17096042, "ECCENTRICITY": 0.00020655, "INCLINATION": 97.4403, "RA_OF_ASC_NODE": 68.0894, "ARG_OF_PERICENTER": 115.4217, "MEAN_ANOMALY": 244.723, "EPHEMERIS_TYPE": 0, "CLASSIFICATION_TYPE": "U", "NORAD_CAT_ID": 66743, "ELEMENT_SET_NO": 999, "REV_AT_EPOCH": 360, "BSTAR": -0.013065325, "MEAN_MOTION_DOT": -0.0025008, "MEAN_MOTION_DDOT": 0}, "tle": {"line1": "1 66743U 25276CF  25356.49737673 -.00250080  00000+0 -13065-1 0  9997", "line2": "2 66743  97.4403  68.0894 0002065 115.4217 244.7230 15.17096042  3600"}}, "geometry": {"type": "Point", "coordinates": [90.13686732328016, -70.25256904733561]}}, {"type": "Feature", "properties": {"norad_id": 66744, "name": "TRANSPORTER-15CG", "group": "last-30-days", "lat": -63.71465552136472, "lon": 84.1213872720413, "alt_km": 501.8746738205482, "timestamp": "2025-12-23T05:02:10.749635+00:00", "meta": {"OBJECT_NAME": "TRANSPORTER-15CG", "OBJECT_ID": "2025-276CG", "EPOCH": "2025-12-22T21:25:17.247072", "MEAN_MOTION": 15.20271155, "ECCENTRICITY": 0.0023636, "INCLINATION": 97.4302, "RA_OF_ASC_NODE": 68.4879, "ARG_OF_PERICENTER": 248.9316, "MEAN_ANOMALY": 110.9391, "EPHEMERIS_TYPE": 0, "CLASSIFICATION_TYPE": "U", "NORAD_CAT_ID": 66744, "ELEMENT_SET_NO": 999, "REV_AT_EPOCH": 366, "BSTAR": -0.014948307, "MEAN_MOTION_DOT": -0.00313718, "MEAN_MOTION_DDOT": 0}, "tle": {"line1": "1 66744U 25276CG  25356.89256073 -.00313718  00000+0 -14948-1 0  9991", "line2": "2 66744  97.4302  68.4879 0023636 248.9316 110.9391 15.20271155  3667"}}, "geometry": {"type": "Point", "coordinates": [84.1213872720413, -63.71465552136472]}}, {"type": "Feature", "properties": {"norad_id": 66745, "name": "TRANSPORTER-15CH", "group": "last-30-days", "lat": -69.98184315459368, "lon": 89.81989652413003, "alt_km": 520.2840246982141, "timestamp": "2025-12-23T05:02:10.749647+00:00", "meta": {"OBJECT_NAME": "TRANSPORTER-15CH", "OBJECT_ID": "2025-276CH", "EPOCH": "2025-12-22T21:26:14.011008", "MEAN_MOTION": 15.17423246, "ECCENTRICITY": 0.00014404, "INCLINATION": 97.4414, "RA_OF_ASC_NODE": 68.4854, "ARG_OF_PERICENTER": 239.9717, "MEAN_ANOMALY": 120.1374, "EPHEMERIS_TYPE": 0, "CLASSIFICATION_TYPE": "U", "NORAD_CAT_ID": 66745, "ELEMENT_SET_NO": 999, "REV_AT_EPOCH": 366, "BSTAR": 0.00022513381, "MEAN_MOTION_DOT": 4.436e-05, "MEAN_MOTION_DDOT": 0}, "tle": {"line1": "1 66745U 25276CH  25356.89321772  .00004436  00000+0  22513-3 0  9992", "line2": "2 66745  97.4414  68.4854 0001440 239.9717 120.1374 15.17423246  3669"}}, "geometry": {"type": "Point", "coordinates": [89.81989652413003, -69.98184315459368]}}, {"type": "Feature", "properties": {"norad_id": 66746, "name": "TRANSPORTER-15CJ", "group": "last-30-days", "lat": -67.89347833441889, "lon": 87.56148436143417, "alt_km": 519.3560237040965, "timestamp": "2025-12-23T05:02:10.749659+00:00", "meta": {"OBJECT_NAME": "TRANSPORTER-15CJ", "OBJECT_ID": "2025-276CJ", "EPOCH": "2025-12-22T10:20:58.283232", "MEAN_MOTION": 15.17466775, "ECCENTRICITY": 0.00025324, "INCLINATION": 97.4408, "RA_OF_ASC_NODE": 68.0277, "ARG_OF_PERICENTER": 254.7861, "MEAN_ANOMALY": 105.3092, "EPHEMERIS_TYPE": 0, "CLASSIFICATION_TYPE": "U", "NORAD_CAT_ID": 66746, "ELEMENT_SET_NO": 999, "REV_AT_EPOCH": 359, "BSTAR": 0.00067533479, "MEAN_MOTION_DOT": 0.00013472, "MEAN_MOTION_DDOT": 0}, "tle": {"line1": "1 66746U 25276CJ  25356.43123013  .00013472  00000+0  67533-3 0  9992", "line2": "2 66746  97.4408  68.0277 0002532 254.7861 105.3092 15.17466775  3594"}}, "geometry": {"type": "Point", "coordinates": [87.56148436143417, -67.89347833441889]}}]}